! Orbits computed with differential corrections
format  = 'OEF1.1'       ! file format
rectype = 'ML'           ! record type (1L/ML)
refsys  = ECLM J2000     ! default reference system
END_OF_HEADER
1996 RO13
! Equinoctial elements: a, e*sin(LP), e*cos(LP), tan(i/2)*sin(LN), tan(i/2)*cos(LN), mean long.
 EQU   3.21771000223041E+00  0.134937092324720  0.128972225867176 -0.002463342747350 -0.000751148176771  10.6003525012540
 MJD     50345.36383972 TDT
 MAG  14.622  0.000
! RMS    1.69286E-03   2.61347E-03   7.59477E-03   1.14802E-05   1.66126E-05   2.61424E-01
! EIG   3.30100E-07   4.51928E-07   1.08166E-05   1.61022E-04   1.85007E-03   9.20578E-03
! WEA  -0.14710  -0.27724  -0.81792  -0.00123  -0.00133  -0.48218
 COV   2.865771804042648E-06  4.016056520519916E-06  9.201868590550495E-06
 COV   1.369341401498641E-08  1.361869454944151E-08  4.046166584304517E-04
 COV   6.830205885165096E-06  1.865890986688413E-05  2.800340506927020E-08
 COV   2.964371539593677E-08  6.831297372264245E-04  5.768051558864516E-05
 COV   8.695438331934619E-08  9.535286216975503E-08  1.854981623726233E-03
 COV   1.317946120636672E-10  1.364742609841366E-10  2.783322878655932E-06
 COV   2.759788726961902E-10  2.940863172455865E-06  6.834262034892050E-02
 NOR   6.710987606056474E+07 -1.678705217073553E+10  2.810529587279842E+08
 NOR   2.075328228976708E+09  1.029043022533386E+08  1.596829869697321E+08
 NOR   7.067118960847491E+12 -1.170122236722471E+11 -3.230180762852423E+09
 NOR   1.448851888728035E+10 -6.736564778558958E+10  1.951436561493282E+09
 NOR  -7.693781894277632E+09 -7.535425995416698E+08  1.115329817539185E+09
 NOR   4.876135007029782E+12  3.125740669435914E+11  1.679257395940246E+07
 NOR   2.864965406134801E+10 -1.389413580601804E+08  6.421514598304927E+08
1220 T-2
! Equinoctial elements: a, e*sin(LP), e*cos(LP), tan(i/2)*sin(LN), tan(i/2)*cos(LN), mean long.
 EQU   3.21235669578948E+00  0.112060178991009  0.115088891942737 -0.002282766147558 -0.000400800287673  16.4751597865052
 MJD     41960.37968139 TDT
 MAG  13.976  0.150
! RMS    2.56692E-03   2.86598E-03   1.26280E-02   1.96168E-05   2.82995E-05   3.87828E-01
! EIG   3.29291E-07   4.49221E-07   2.08127E-05   3.30470E-04   5.61603E-03   1.37273E-02
! WEA   0.14433   0.08365  -0.90483  -0.00140  -0.00140   0.39172
 COV   6.589087085946581E-06  6.465004180052009E-06 -2.095865737703161E-05
 COV  -3.234695659300779E-08 -3.700087547854728E-08  9.859511996556877E-04
 COV   8.213813622819411E-06 -8.282347416414264E-06 -1.261242674015246E-08
 COV  -2.024339954857016E-08  9.723077488853408E-04  1.594652256983690E-04
 COV   2.468199616598883E-07  2.404343261294951E-07 -3.290489745560960E-03
 COV   3.848177254149482E-10  4.051632079078227E-10 -5.071663282861541E-06
 COV   8.008626891376454E-10 -5.759659363840682E-06  1.504106210652658E-01
 NOR   3.004902776498665E+08 -4.497990627698122E+10  6.673589126783146E+09
 NOR   1.915997944988134E+09 -2.323834326027516E+08  4.348482682875956E+08
 NOR   6.939386232942694E+12 -1.030019479458673E+12 -2.796166491176805E+09
 NOR   1.340312511365619E+10 -6.709683439530365E+10  1.528971821907020E+11
 NOR  -6.752161630420560E+09 -1.439760153301929E+09  9.959271163639126E+09
 NOR   4.926083141208729E+12 -3.798961783689925E+11  9.355042040731514E+06
 NOR   3.164471077367535E+10 -1.282143661894854E+08  6.487588559711223E+08
1996RO13=1220T-2
! Equinoctial elements: a, e*sin(LP), e*cos(LP), tan(i/2)*sin(LN), tan(i/2)*cos(LN), mean long.
 EQU   3.21088566230868E+00  0.115721449346802  0.107936016977390 -0.002391256381661 -0.000581049254476  12.9743845163433
 MJD     46152.87176056 TDT
 MAG  14.407  0.075
! RMS    2.17311E-05   1.46251E-04   2.06456E-03   3.55848E-06   1.36675E-05   1.82526E-02
! EIG   9.34183E-08   2.88965E-07   3.59741E-07   5.40773E-06   2.69537E-04   2.07684E-03
! WEA   0.00997   0.01026  -0.99402  -0.00170  -0.00601  -0.10805
 COV   4.722424417016977E-10 -5.106795510292838E-10 -4.260448560390640E-08
 COV  -7.327822711872385E-11 -2.672699411945163E-10 -3.515132781074613E-07
 COV   2.138949559294987E-08 -4.732896512442547E-08 -7.635011813033655E-11
 COV  -7.221988270536478E-11  1.600746737371590E-06  4.262408939291424E-06
 COV   7.308534664011938E-09  2.573434321064624E-08  2.624181895225083E-05
 COV   1.266279261469557E-11  4.431920547388391E-11  4.543111919940485E-08
 COV   1.868009588373441E-10  1.777979962793242E-07  3.331559039663799E-04
 NOR   1.145059557016592E+14  1.167775665611933E+12  8.705269610576678E+11
 NOR   1.160705116243224E+11 -8.816300425656599E+10  4.666656561338289E+10
 NOR   8.532391792628176E+12  6.818341275324519E+11  6.952641758331140E+10
 NOR  -8.123007775895622E+09 -9.347573145060010E+10  5.979194324362391E+10
 NOR  -6.645487199021364E+09 -1.359548753405064E+09 -7.065603982178194E+09
 NOR   7.728627757391837E+12 -3.838159152280322E+10 -7.215847719154243E+08
 NOR   3.445739958091953E+10  3.994137790483236E+07  1.054989171167937E+09
